STARLINK-5306           
1 55271U 23010C   26068.35849346  .00000787  00000+0  73714-4 0  9997
2 55271  70.0003  45.3995 0003022 270.3748  89.7065 14.98330801172737
ICEYE-X40               
1 60549U 24149CK  26068.75921699  .00003253  00000+0  28352-3 0  9999
2 60549  97.6865 146.8579 0005983  65.2061 294.9783 14.97556326 85195
